{
  "type": "FeatureCollection",
  "features": [
    {
      "type": "Feature",
      "properties": {
        "norad_id": 41773,
        "name": "SKYSAT-C2",
        "group": "resource",
        "lat": -67.15910061725727,
        "lon": 35.85247482662234,
        "alt_km": 460.58145124490966,
        "timestamp": "2025-12-20T14:38:01.615919+00:00",
        "meta_object_name": "SKYSAT-C2",
        "meta_object_id": "2016-058D",
        "meta_epoch": "2025-12-20T00:52:16.860864",
        "meta_mean_motion": 15.37425568,
        "meta_eccentricity": 0.00034481,
        "meta_inclination": 97.035,
        "meta_ra_of_asc_node": 18.2542,
        "meta_arg_of_pericenter": 14.0685,
        "meta_mean_anomaly": 346.0656,
        "meta_ephemeris_type": 0,
        "meta_classification_type": "U",
        "meta_norad_cat_id": 41773,
        "meta_element_set_no": 999,
        "meta_rev_at_epoch": 51748,
        "meta_bstar": 0.0002251688,
        "meta_mean_motion_dot": 8.187e-05,
        "meta_mean_motion_ddot": 0,
        "tle_line1": "1 41773U 16058D   25354.03630626  .00008187  00000+0  22517-3 0  9990",
        "tle_line2": "2 41773  97.0350  18.2542 0003448  14.0685 346.0656 15.37425568517484"
      },
      "geometry": {
        "type": "Point",
        "coordinates": [
          35.85247482662234,
          -67.15910061725727
        ]
      }
    },
    {
      "type": "Feature",
      "properties": {
        "norad_id": 41774,
        "name": "SKYSAT-C3",
        "group": "resource",
        "lat": -36.374580177058476,
        "lon": 33.12921385964056,
        "alt_km": 439.85973145787193,
        "timestamp": "2025-12-20T14:38:01.615929+00:00",
        "meta_object_name": "SKYSAT-C3",
        "meta_object_id": "2016-058E",
        "meta_epoch": "2025-12-20T02:21:14.910336",
        "meta_mean_motion": 15.44645459,
        "meta_eccentricity": 0.00019178,
        "meta_inclination": 96.9286,
        "meta_ra_of_asc_node": 27.5022,
        "meta_arg_of_pericenter": 107.9248,
        "meta_mean_anomaly": 252.2211,
        "meta_ephemeris_type": 0,
        "meta_classification_type": "U",
        "meta_norad_cat_id": 41774,
        "meta_element_set_no": 999,
        "meta_rev_at_epoch": 51839,
        "meta_bstar": 0.00028292619,
        "meta_mean_motion_dot": 0.00013104,
        "meta_mean_motion_ddot": 0,
        "tle_line1": "1 41774U 16058E   25354.09808924  .00013104  00000+0  28293-3 0  9997",
        "tle_line2": "2 41774  96.9286  27.5022 0001917 107.9248 252.2211 15.44645459518390"
      },
      "geometry": {
        "type": "Point",
        "coordinates": [
          33.12921385964056,
          -36.374580177058476
        ]
      }
    },
    {
      "type": "Feature",
      "properties": {
        "norad_id": 41785,
        "name": "ALSAT 1B",
        "group": "resource",
        "lat": -66.2416445084833,
        "lon": 24.156654464208973,
        "alt_km": 668.1448364950056,
        "timestamp": "2025-12-20T14:38:01.615939+00:00",
        "meta_object_name": "ALSAT 1B",
        "meta_object_id": "2016-059C",
        "meta_epoch": "2025-12-20T06:47:00.627360",
        "meta_mean_motion": 14.72084017,
        "meta_eccentricity": 0.00107915,
        "meta_inclination": 97.7806,
        "meta_ra_of_asc_node": 5.7472,
        "meta_arg_of_pericenter": 82.2307,
        "meta_mean_anomaly": 278.0126,
        "meta_ephemeris_type": 0,
        "meta_classification_type": "U",
        "meta_norad_cat_id": 41785,
        "meta_element_set_no": 999,
        "meta_rev_at_epoch": 49425,
        "meta_bstar": 0.00010895874,
        "meta_mean_motion_dot": 6.39e-06,
        "meta_mean_motion_ddot": 0,
        "tle_line1": "1 41785U 16059C   25354.28264615  .00000639  00000+0  10896-3 0  9993",
        "tle_line2": "2 41785  97.7806   5.7472 0010791  82.2307 278.0126 14.72084017494253"
      },
      "geometry": {
        "type": "Point",
        "coordinates": [
          24.156654464208973,
          -66.2416445084833
        ]
      }
    },
    {
      "type": "Feature",
      "properties": {
        "norad_id": 41787,
        "name": "PATHFINDER 1",
        "group": "resource",
        "lat": -56.0725871342936,
        "lon": 165.2393410162239,
        "alt_km": 697.7059739040205,
        "timestamp": "2025-12-20T14:38:01.615949+00:00",
        "meta_object_name": "PATHFINDER 1",
        "meta_object_id": "2016-059E",
        "meta_epoch": "2025-12-19T22:49:46.698816",
        "meta_mean_motion": 14.67332832,
        "meta_eccentricity": 0.0029853,
        "meta_inclination": 97.8135,
        "meta_ra_of_asc_node": 356.3902,
        "meta_arg_of_pericenter": 59.2562,
        "meta_mean_anomaly": 301.1577,
        "meta_ephemeris_type": 0,
        "meta_classification_type": "U",
        "meta_norad_cat_id": 41787,
        "meta_element_set_no": 999,
        "meta_rev_at_epoch": 49342,
        "meta_bstar": 0.0001042,
        "meta_mean_motion_dot": 5.46e-06,
        "meta_mean_motion_ddot": 0,
        "tle_line1": "1 41787U 16059E   25353.95123494  .00000546  00000+0  10420-3 0  9997",
        "tle_line2": "2 41787  97.8135 356.3902 0029853  59.2562 301.1577 14.67332832493421"
      },
      "geometry": {
        "type": "Point",
        "coordinates": [
          165.2393410162239,
          -56.0725871342936
        ]
      }
    },
    {
      "type": "Feature",
      "properties": {
        "norad_id": 41790,
        "name": "SCATSAT 1",
        "group": "resource",
        "lat": -18.98712415544718,
        "lon": -131.44671891978652,
        "alt_km": 641.5840790758066,
        "timestamp": "2025-12-20T14:38:01.615959+00:00",
        "meta_object_name": "SCATSAT 1",
        "meta_object_id": "2016-059H",
        "meta_epoch": "2025-12-20T03:59:58.946208",
        "meta_mean_motion": 14.78958781,
        "meta_eccentricity": 0.00564467,
        "meta_inclination": 98.1453,
        "meta_ra_of_asc_node": 50.9294,
        "meta_arg_of_pericenter": 104.5786,
        "meta_mean_anomaly": 256.1694,
        "meta_ephemeris_type": 0,
        "meta_classification_type": "U",
        "meta_norad_cat_id": 41790,
        "meta_element_set_no": 999,
        "meta_rev_at_epoch": 7512,
        "meta_bstar": 0.00013990591,
        "meta_mean_motion_dot": 1.004e-05,
        "meta_mean_motion_ddot": 0,
        "tle_line1": "1 41790U 16059H   25354.16665447  .00001004  00000+0  13991-3 0  9990",
        "tle_line2": "2 41790  98.1453  50.9294 0056446 104.5786 256.1694 14.78958781 75124"
      },
      "geometry": {
        "type": "Point",
        "coordinates": [
          -131.44671891978652,
          -18.98712415544718
        ]
      }
    },
    {
      "type": "Feature",
      "properties": {
        "norad_id": 41875,
        "name": "GOKTURK 1A",
        "group": "resource",
        "lat": -5.726425098784498,
        "lon": 66.04704155291371,
        "alt_km": 688.1389674804341,
        "timestamp": "2025-12-20T14:38:01.615969+00:00",
        "meta_object_name": "GOKTURK 1A",
        "meta_object_id": "2016-073A",
        "meta_epoch": "2025-12-20T07:13:15.852288",
        "meta_mean_motion": 14.62788419,
        "meta_eccentricity": 0.0001267,
        "meta_inclination": 98.1435,
        "meta_ra_of_asc_node": 246.5651,
        "meta_arg_of_pericenter": 80.4594,
        "meta_mean_anomaly": 279.6751,
        "meta_ephemeris_type": 0,
        "meta_classification_type": "U",
        "meta_norad_cat_id": 41875,
        "meta_element_set_no": 999,
        "meta_rev_at_epoch": 48267,
        "meta_bstar": 0.00011579242,
        "meta_mean_motion_dot": 5.44e-06,
        "meta_mean_motion_ddot": 0,
        "tle_line1": "1 41875U 16073A   25354.30087792  .00000544  00000+0  11579-3 0  9995",
        "tle_line2": "2 41875  98.1435 246.5651 0001267  80.4594 279.6751 14.62788419482676"
      },
      "geometry": {
        "type": "Point",
        "coordinates": [
          66.04704155291371,
          -5.726425098784498
        ]
      }
    },
    {
      "type": "Feature",
      "properties": {
        "norad_id": 41877,
        "name": "RESOURCESAT-2A",
        "group": "resource",
        "lat": 29.79044867488357,
        "lon": -110.50646476702036,
        "alt_km": 818.0066817193801,
        "timestamp": "2025-12-20T14:38:01.615979+00:00",
        "meta_object_name": "RESOURCESAT-2A",
        "meta_object_id": "2016-074A",
        "meta_epoch": "2025-12-20T05:29:08.714112",
        "meta_mean_motion": 14.21602641,
        "meta_eccentricity": 0.00014027,
        "meta_inclination": 98.7755,
        "meta_ra_of_asc_node": 64.0413,
        "meta_arg_of_pericenter": 219.0234,
        "meta_mean_anomaly": 141.0842,
        "meta_ephemeris_type": 0,
        "meta_classification_type": "U",
        "meta_norad_cat_id": 41877,
        "meta_element_set_no": 999,
        "meta_rev_at_epoch": 46887,
        "meta_bstar": 3.945974e-05,
        "meta_mean_motion_dot": 4.2e-07,
        "meta_mean_motion_ddot": 0,
        "tle_line1": "1 41877U 16074A   25354.22857308  .00000042  00000+0  39460-4 0  9990",
        "tle_line2": "2 41877  98.7755  64.0413 0001402 219.0234 141.0842 14.21602641468876"
      },
      "geometry": {
        "type": "Point",
        "coordinates": [
          -110.50646476702036,
          29.79044867488357
        ]
      }
    }
  ]
}